[
    {
        "Altitude(m)": 607897.6241482126,
        "Argument of Periapsis(deg)": 0.0,
        "Eccentricity": 0.0,
        "Inclination(deg)": 60.0,
        "Latitude(deg)": -14.292988156773637,
        "Longitude(deg)": 6.618784330855623,
        "Mean Anomaly(deg)": -16.363600000000012,
        "RAAN(deg)": 114.99999999999999,
        "Satellite Name": "Test1 527",
        "Satellite Number": 527,
        "Semi-Major Axis(m)": 6980739.136638005,
        "Time(s)": 0
    },
    {
        "Altitude(m)": 607750.8250070321,
        "Argument of Periapsis(deg)": 0.00010418945913296404,
        "Eccentricity": 0.0,
        "Inclination(deg)": 60.0,
        "Latitude(deg)": -13.758828977877073,
        "Longitude(deg)": 6.9058521862206605,
        "Mean Anomaly(deg)": -15.743493854538157,
        "RAAN(deg)": 114.99957995086024,
        "Satellite Name": "Test1 527",
        "Satellite Number": 527,
        "Semi-Major Axis(m)": 6980739.136638005,
        "Time(s)": 10
    },
    {
        "Altitude(m)": 607606.5501540599,
        "Argument of Periapsis(deg)": 0.0002083789182659281,
        "Eccentricity": 0.0,
        "Inclination(deg)": 60.0,
        "Latitude(deg)": -13.224195053408463,
        "Longitude(deg)": 7.1914436396706725,
        "Mean Anomaly(deg)": -15.12338770907633,
        "RAAN(deg)": 114.9991599017205,
        "Satellite Name": "Test1 527",
        "Satellite Number": 527,
        "Semi-Major Axis(m)": 6980739.136638005,
        "Time(s)": 20
    },
    {
        "Altitude(m)": 607464.8439616238,
        "Argument of Periapsis(deg)": 0.00031256837739889213,
        "Eccentricity": 0.0,
        "Inclination(deg)": 60.0,
        "Latitude(deg)": -12.689106687784433,
        "Longitude(deg)": 7.47562337054285,
        "Mean Anomaly(deg)": -14.503281563614477,
        "RAAN(deg)": 114.99873985258075,
        "Satellite Name": "Test1 527",
        "Satellite Number": 527,
        "Semi-Major Axis(m)": 6980739.136638005,
        "Time(s)": 30
    },
    {
        "Altitude(m)": 607325.7495249357,
        "Argument of Periapsis(deg)": 0.0004167578365318562,
        "Eccentricity": 0.0,
        "Inclination(deg)": 60.0,
        "Latitude(deg)": -12.153583912875195,
        "Longitude(deg)": 7.75845571551714,
        "Mean Anomaly(deg)": -13.883175418152751,
        "RAAN(deg)": 114.99831980344102,
        "Satellite Name": "Test1 527",
        "Satellite Number": 527,
        "Semi-Major Axis(m)": 6980739.136638005,
        "Time(s)": 40
    },
    {
        "Altitude(m)": 607189.3086438308,
        "Argument of Periapsis(deg)": 0.0005209472956648203,
        "Eccentricity": 0.0,
        "Inclination(deg)": 60.0,
        "Latitude(deg)": -11.617646501947235,
        "Longitude(deg)": 8.040003700150276,
        "Mean Anomaly(deg)": -13.263069272690899,
        "RAAN(deg)": 114.99789975430127,
        "Satellite Name": "Test1 527",
        "Satellite Number": 527,
        "Semi-Major Axis(m)": 6980739.136638005,
        "Time(s)": 50
    },
    {
        "Altitude(m)": 607055.561805027,
        "Argument of Periapsis(deg)": 0.0006251367547977843,
        "Eccentricity": 0.0,
        "Inclination(deg)": 60.0,
        "Latitude(deg)": -11.081313983249144,
        "Longitude(deg)": 8.320329582606282,
        "Mean Anomaly(deg)": -12.642963127229072,
        "RAAN(deg)": 114.99747970516154,
        "Satellite Name": "Test1 527",
        "Satellite Number": 527,
        "Semi-Major Axis(m)": 6980739.136638005,
        "Time(s)": 60
    },
    {
        "Altitude(m)": 606924.5481650969,
        "Argument of Periapsis(deg)": 0.0007293262139307483,
        "Eccentricity": 0.0,
        "Inclination(deg)": 60.0,
        "Latitude(deg)": -10.544605653259579,
        "Longitude(deg)": 8.599495396739995,
        "Mean Anomaly(deg)": -12.02285698176722,
        "RAAN(deg)": 114.99705965602179,
        "Satellite Name": "Test1 527",
        "Satellite Number": 527,
        "Semi-Major Axis(m)": 6980739.136638005,
        "Time(s)": 70
    },
    {
        "Altitude(m)": 606796.3055340623,
        "Argument of Periapsis(deg)": 0.0008335156730637124,
        "Eccentricity": 0.0,
        "Inclination(deg)": 60.0,
        "Latitude(deg)": -10.007540589620826,
        "Longitude(deg)": 8.877561981688576,
        "Mean Anomaly(deg)": -11.402750836305392,
        "RAAN(deg)": 114.99663960688207,
        "Satellite Name": "Test1 527",
        "Satellite Number": 527,
        "Semi-Major Axis(m)": 6980739.136638005,
        "Time(s)": 80
    },
    {
        "Altitude(m)": 606670.8703596275,
        "Argument of Periapsis(deg)": 0.0009377051321966765,
        "Eccentricity": 0.0,
        "Inclination(deg)": 60.0,
        "Latitude(deg)": -9.470137663768838,
        "Longitude(deg)": 9.15458952374629,
        "Mean Anomaly(deg)": -10.782644690843538,
        "RAAN(deg)": 114.99621955774231,
        "Satellite Name": "Test1 527",
        "Satellite Number": 527,
        "Semi-Major Axis(m)": 6980739.136638005,
        "Time(s)": 90
    },
    {
        "Altitude(m)": 606548.277712098,
        "Argument of Periapsis(deg)": 0.0010418945913296407,
        "Eccentricity": 0.0,
        "Inclination(deg)": 60.0,
        "Latitude(deg)": -8.932415553280961,
        "Longitude(deg)": 9.43063809767956,
        "Mean Anomaly(deg)": -10.16253854538171,
        "RAAN(deg)": 114.99579950860259,
        "Satellite Name": "Test1 527",
        "Satellite Number": 527,
        "Semi-Major Axis(m)": 6980739.136638005,
        "Time(s)": 100
    },
    {
        "Altitude(m)": 606428.561269974,
        "Argument of Periapsis(deg)": 0.0011460840504626045,
        "Eccentricity": 0.0,
        "Inclination(deg)": 60.0,
        "Latitude(deg)": -8.39439275396045,
        "Longitude(deg)": 9.705766694636612,
        "Mean Anomaly(deg)": -9.542432399919958,
        "RAAN(deg)": 114.99537945946282,
        "Satellite Name": "Test1 527",
        "Satellite Number": 527,
        "Semi-Major Axis(m)": 6980739.136638005,
        "Time(s)": 110
    },
    {
        "Altitude(m)": 606311.7533062097,
        "Argument of Periapsis(deg)": 0.0012502735095955685,
        "Eccentricity": 0.0,
        "Inclination(deg)": 60.0,
        "Latitude(deg)": -7.856087591668988,
        "Longitude(deg)": 9.980033762429715,
        "Mean Anomaly(deg)": -8.922326254458028,
        "RAAN(deg)": 114.9949594103231,
        "Satellite Name": "Test1 527",
        "Satellite Number": 527,
        "Semi-Major Axis(m)": 6980739.136638005,
        "Time(s)": 120
    },
    {
        "Altitude(m)": 606197.8846751543,
        "Argument of Periapsis(deg)": 0.0013544629687285324,
        "Eccentricity": 0.0,
        "Inclination(deg)": 60.0,
        "Latitude(deg)": -7.317518233927501,
        "Longitude(deg)": 10.253497745343381,
        "Mean Anomaly(deg)": -8.302220108996279,
        "RAAN(deg)": 114.99453936118334,
        "Satellite Name": "Test1 527",
        "Satellite Number": 527,
        "Semi-Major Axis(m)": 6980739.136638005,
        "Time(s)": 130
    },
    {
        "Altitude(m)": 606086.9848002178,
        "Argument of Periapsis(deg)": 0.0014586524278614966,
        "Eccentricity": 0.0,
        "Inclination(deg)": 60.0,
        "Latitude(deg)": -6.778702701301039,
        "Longitude(deg)": 10.526216110627978,
        "Mean Anomaly(deg)": -7.682113963534451,
        "RAAN(deg)": 114.99411931204362,
        "Satellite Name": "Test1 527",
        "Satellite Number": 527,
        "Semi-Major Axis(m)": 6980739.136638005,
        "Time(s)": 140
    },
    {
        "Altitude(m)": 605979.0816622023,
        "Argument of Periapsis(deg)": 0.0015628418869944607,
        "Eccentricity": 0.0,
        "Inclination(deg)": 60.0,
        "Latitude(deg)": -6.239658878581381,
        "Longitude(deg)": 10.798245887451115,
        "Mean Anomaly(deg)": -7.062007818072598,
        "RAAN(deg)": 114.99369926290385,
        "Satellite Name": "Test1 527",
        "Satellite Number": 527,
        "Semi-Major Axis(m)": 6980739.136638005,
        "Time(s)": 150
    },
    {
        "Altitude(m)": 605874.2017883748,
        "Argument of Periapsis(deg)": 0.0016670313461274247,
        "Eccentricity": 0.0,
        "Inclination(deg)": 60.0,
        "Latitude(deg)": -5.700404525782692,
        "Longitude(deg)": 11.069644205465755,
        "Mean Anomaly(deg)": -6.441901672610769,
        "RAAN(deg)": 114.99327921376414,
        "Satellite Name": "Test1 527",
        "Satellite Number": 527,
        "Semi-Major Axis(m)": 6980739.136638005,
        "Time(s)": 160
    },
    {
        "Altitude(m)": 605772.3702422176,
        "Argument of Periapsis(deg)": 0.0017712208052603888,
        "Eccentricity": 0.0,
        "Inclination(deg)": 60.0,
        "Latitude(deg)": -5.1609572889690165,
        "Longitude(deg)": 11.340467320148944,
        "Mean Anomaly(deg)": -5.821795527148917,
        "RAAN(deg)": 114.99285916462436,
        "Satellite Name": "Test1 527",
        "Satellite Number": 527,
        "Semi-Major Axis(m)": 6980739.136638005,
        "Time(s)": 170
    },
    {
        "Altitude(m)": 605673.6106139299,
        "Argument of Periapsis(deg)": 0.001875410264393353,
        "Eccentricity": 0.0,
        "Inclination(deg)": 60.0,
        "Latitude(deg)": -4.621334710923038,
        "Longitude(deg)": 11.610771150688329,
        "Mean Anomaly(deg)": -5.201689381687089,
        "RAAN(deg)": 114.99243911548463,
        "Satellite Name": "Test1 527",
        "Satellite Number": 527,
        "Semi-Major Axis(m)": 6980739.136638005,
        "Time(s)": 180
    },
    {
        "Altitude(m)": 605577.9450116355,
        "Argument of Periapsis(deg)": 0.0019795997235263173,
        "Eccentricity": 0.0,
        "Inclination(deg)": 60.0,
        "Latitude(deg)": -4.081554241672693,
        "Longitude(deg)": 11.880611817571626,
        "Mean Anomaly(deg)": -4.581583236225236,
        "RAAN(deg)": 114.99201906634488,
        "Satellite Name": "Test1 527",
        "Satellite Number": 527,
        "Semi-Major Axis(m)": 6980739.136638005,
        "Time(s)": 190
    }
]